0 TITAN 3C TRANSTAGE DEB
1 26525U 65108AL  13285.62858277  .00000444  00000-0  34119-2 0  4216
2 26525 026.3695 076.0476 6739266 149.2425 278.6714 02.80995994140521
0 TITAN 3C TRANSTAGE DEB
1 26525U 65108AL  13285.62859556  .00000647  00000-0  48289-2 0  4226
2 26525 026.3644 076.1372 6737430 149.1599 278.6716 02.80996939140536
0 TITAN 3C TRANSTAGE DEB
1 26525U 65108AL  13285.97195586  .00000784  00000-0  56781-2 0  4239
2 26525 026.3702 075.8611 6738521 149.5391 266.0333 02.81002484140539
0 TITAN 3C TRANSTAGE DEB
1 26525U 65108AL  13287.84069453  .00000973  00000-0  71970-2 0  4248
2 26525 026.3767 075.0136 6738443 150.9588 356.4623 02.81007103140596
0 TITAN 3C TRANSTAGE DEB
1 26525U 65108AL  13295.57368732 -.00000085  00000-0  10000-3 0  4253
2 26525 026.4038 071.5211 6736630 156.8227 259.4706 02.81228928140813
0 TITAN 3C TRANSTAGE DEB
1 26525U 65108AL  13295.76666194  .00000888  00000-0  63299-2 0  4265
2 26525 026.4030 071.4244 6738057 156.9769 094.7608 02.81027282140818
